# From NK 1615
P/1996 R2 (Lagerkvist),e,2.5993,40.0536,333.4624,3.773286,0.1344697,0.31442106,280.3223,10/31.0/2024,2000,g 11.5,4.0
# From MPC 75703
P/1998 VS24 (LINEAR),e,5.0286,159.0524,244.8166,4.521647,0.1025083,0.24367644,253.2494,10/31.0/2024,2000,g 13.0,2.0
# From unp
P/1999 D1 (Hermann),e,21.2542,348.7584,173.8344,5.786267,0.0708119,0.71320988,309.7742,10/31.0/2024,2000,g  9.0,4.0
# From unp
P/1999 R1 (SOHO),e,11.4274,351.5999,56.8635,2.508445,0.2480831,0.97997735,0.0000,08/21.0424/2023,2000,g  9.0,4.0
# From NK 731
P/1999 RO28 (LONEOS),e,7.5667,137.8511,231.3455,3.425609,0.1554524,0.67227972,303.3734,10/31.0/2024,2000,g 20.0,2.0
# From MPC 75704
P/1999 XN120 (Catalina),e,5.0295,285.2510,161.6594,4.180260,0.1153185,0.21110228,311.9002,10/31.0/2024,2000,g 13.5,2.0
# From unp
P/2000 QJ46 (LINEAR),e,4.4326,158.0972,222.2798,5.790699,0.0707306,0.67543974,254.1337,10/31.0/2024,2000,g  9.0,4.0
# From NK 744
P/2000 R2 (LINEAR),e,11.6795,160.2807,176.5882,3.468693,0.1525651,0.53072573,299.3883,10/31.0/2024,2000,g 18.0,4.0
# From unp
P/2001 BB50 (LINEAR-NEAT),e,10.3269,351.1491,193.3394,5.752705,0.0714325,0.58606457,267.0526,10/31.0/2024,2000,g 13.0,4.0
# From MPC 43019
P/2001 H5 (NEAT),e,8.3705,328.6575,224.6121,6.095292,0.0654956,0.59872973,216.9480,10/31.0/2024,2000,g 12.0,4.0
# From MPEC 2023-UR6
P/2002 EJ57 (LINEAR),e,4.9861,330.2424,167.2613,6.456389,0.0600786,0.59356268,139.7381,10/31.0/2024,2000,g 12.5,4.0
# From MPC 75007
C/2002 VQ94 (LINEAR),e,70.6902,35.1383,99.8144,185.8877,0.0003889,0.96361953,2.6598,10/31.0/2024,2000,g  9.5,2.0
# From MPC 50354
P/2003 F2 (NEAT),e,11.6693,358.9011,192.5619,6.514316,0.0592790,0.54141609,107.4293,10/31.0/2024,2000,g 16.5,2.0
# From MPC 50139
P/2003 QX29 (NEAT),e,11.3994,264.5333,37.6648,8.002552,0.0435373,0.47154341,347.8047,10/31.0/2024,2000,g  8.5,4.0
# From MPC105235
P/2003 T12 (SOHO),e,11.0251,174.5772,219.7850,2.584023,0.2372791,0.77025542,28.2943,10/31.0/2024,2000,g 17.0,4.0
# From unp
P/2003 U3 (NEAT),e,7.0160,347.9276,357.0408,5.042373,0.0870466,0.51057538,318.1615,10/31.0/2024,2000,g 12.0,4.0
# From MPEC 2022-YN2
P/2004 FY140 (LINEAR),e,2.1624,327.2639,254.1531,4.969763,0.0889612,0.19244436,284.9427,10/31.0/2024,2000,g 12.5,2.0
# From unp
P/2004 H2 (Larsen),e,11.7749,131.3751,104.6880,4.526624,0.1023393,0.41683295,46.2902,10/31.0/2024,2000,g  9.0,4.0
# From MPC 53304
P/2004 R3 (LINEAR-NEAT),e,12.7966,305.1208,37.3955,4.750810,0.0951815,0.25437130,108.5167,10/31.0/2024,2000,g 14.5,4.0
# From MPC 75705
P/2004 V5 (LINEAR-Hill),e,19.3441,47.7414,87.2751,8.028838,0.0433237,0.44778637,316.2275,10/31.0/2024,2000,g  8.0,4.0
# From MPC 75705
P/2004 V5-B (LINEAR-Hill),e,19.3441,47.7418,87.2788,8.029170,0.0433210,0.44780730,316.1883,10/31.0/2024,2000,g  8.0,4.0
# From MPC 54164
P/2005 E1 (Tubbiolo),e,4.2610,335.5125,193.8833,7.065618,0.0524782,0.37690118,20.9474,10/31.0/2024,2000,g 10.0,4.0
# From unp
P/2005 GF8 (LONEOS),e,1.1658,312.8353,285.3989,5.756983,0.0713529,0.51382584,133.6060,10/31.0/2024,2000,g  9.0,4.0
# From MPC 79019
P/2005 J1 (McNaught),e,31.7407,268.8003,338.9189,3.573895,0.1458785,0.56922076,322.9875,10/31.0/2024,2000,g 16.5,4.0
# From MPC 74246
P/2005 L1 (McNaught),e,7.8989,132.0625,155.9215,3.978571,0.1241977,0.23495684,132.8114,10/31.0/2024,2000,g  9.5,4.0
# From MPC 75706
P/2005 S2 (Skiff),e,3.1376,161.3447,229.8773,7.988635,0.0436511,0.19875840,292.5128,10/31.0/2024,2000,g  7.5,4.0
# From MPC 73461
P/2005 T3 (Read),e,6.2298,27.6341,6.9521,7.581135,0.0472175,0.17502035,329.0349,10/31.0/2024,2000,g  9.0,4.0
# From MPC 73461
P/2005 T4 (SWAN),e,160.2718,25.8979,41.8505,9.352845,0.0344579,0.93041744,239.5019,10/31.0/2024,2000,g 15.0,4.0
# From MPC 75706
P/2005 T5 (Broughton),e,21.3832,57.0668,304.7613,7.263474,0.0503486,0.55205536,348.5778,10/31.0/2024,2000,g 11.0,4.0
# From MPEC 2024-DD5
P/2005 XR132 (Spacewatch),e,14.4752,265.3950,240.7680,3.757865,0.1352983,0.43262260,194.0037,10/31.0/2024,2000,g 16.0,4.0
# From unp
P/2005 Y2 (McNaught),e,19.1539,93.7997,193.3610,6.289680,0.0624829,0.46434415,92.6595,10/31.0/2024,2000,g  9.0,4.0
# From MPEC 2024-JU4
P/2006 AH2 (Sheppard-Tholen),e,10.0161,261.6454,196.0412,6.848022,0.0549992,0.41712449,23.8210,10/31.0/2024,2000,g 13.0,4.0
# From unp
P/2006 F4 (Spacewatch),e,12.4281,183.5440,31.4023,3.487404,0.1513389,0.35013919,287.1606,10/31.0/2024,2000,g  9.0,4.0
# From MPC 75707
P/2006 HR30 (Siding Spring),e,31.9401,309.7825,117.4787,7.800027,0.0452439,0.84366096,294.8939,10/31.0/2024,2000,g 11.0,4.0
# From unp
P/2006 XG16 (Spacewatch),e,9.0627,78.4046,40.9160,3.638372,0.1420180,0.41930271,200.3840,10/31.0/2024,2000,g  9.0,4.0
# From MPC 75707
P/2007 C2 (Catalina),e,8.6124,275.2408,180.1476,7.014953,0.0530477,0.47361383,333.1293,10/31.0/2024,2000,g 10.0,4.0
# From MPC 84315
C/2007 D1 (LINEAR),e,41.5087,171.1020,339.7045,1177,0.0000244,0.99256937,0.0000,06/11.8185/2007,2000,g  3.5,4.0
# From MPEC 2024-GJ3
P/2007 K2 (Gibbs),e,7.6072,188.5301,347.1573,7.347125,0.0494912,0.68587108,319.5131,10/31.0/2024,2000,g 14.0,4.0
# From MPC 60925
P/2007 Q2 (Gilmore),e,10.1967,172.2130,162.8691,5.661216,0.0731711,0.66907829,105.0132,10/31.0/2024,2000,g 16.0,4.0
# From MPC 73462
P/2007 S1 (Zhao),e,5.9640,141.3312,245.2476,3.817742,0.1321278,0.33822117,99.8016,10/31.0/2024,2000,g 13.0,4.0
# From MPEC 2024-GJ3
C/2007 S2 (Lemmon),e,16.9075,296.1228,210.1568,12.49824,0.0223065,0.55634703,131.7337,10/31.0/2024,2000,g  6.5,4.0
# From MPC 61994
P/2007 T2 (Kowalski),e,9.7503,3.3876,359.6708,3.043654,0.1856142,0.78557969,64.6697,10/31.0/2024,2000,g 18.5,4.0
# From MPEC 2024-GJ3
C/2008 E1 (Catalina),e,34.8661,188.9687,270.2956,10.76485,0.0279056,0.55266242,165.1303,10/31.0/2024,2000,g  7.0,4.0
# From MPC 64114
P/2008 O3 (Boattini),e,32.3243,47.6083,341.1978,8.209080,0.0419047,0.69643802,250.6930,10/31.0/2024,2000,g 13.0,4.0
# From MPC 75710
P/2008 Y3 (McNaught),e,38.7788,262.8444,238.0750,8.040887,0.0432263,0.44766537,250.5408,10/31.0/2024,2000,g  8.5,4.0
# From MPC 75710
P/2009 B1 (Boattini),e,22.2581,297.1070,128.9730,6.729534,0.0564581,0.63605892,325.7107,10/31.0/2024,2000,g 13.0,4.0
# From MPC 66466
C/2009 G1 (STEREO),e,108.1399,120.8214,175.5330,462.9524,0.0000989,0.99753895,0.0000,04/18.0051/2009,2000,g  9.0,4.0
# From MPC 75710
P/2009 O3 (Hill),e,16.2634,183.7154,154.4542,7.769640,0.0455096,0.68656013,256.3669,10/31.0/2024,2000,g 12.5,4.0
# From MPC 68902
P/2009 Q5 (McNaught),e,40.9641,160.2360,209.1948,7.425329,0.0487114,0.60958514,268.7304,10/31.0/2024,2000,g 10.0,4.0
# From unp
P/2009 QG31 (La Sagra),e,5.0510,346.1168,5.6897,3.570077,0.1461126,0.39931552,81.9961,10/31.0/2024,2000,g 14.0,4.0
# From MPC112389
P/2009 T2 (La Sagra),e,27.6095,216.3423,215.9590,7.710270,0.0460362,0.76745741,248.8815,10/31.0/2024,2000,g 14.0,4.0
# From MPC105235
P/2009 WX51 (Catalina),e,9.5959,31.5309,118.2783,3.082529,0.1821140,0.73954693,263.2721,10/31.0/2024,2000,g 19.0,2.0
# From MPC 74247
P/2009 Y2 (Kowalski),e,29.9740,262.0865,172.2025,6.541878,0.0589048,0.63744284,315.1344,10/31.0/2024,2000,g 13.0,4.0
# From MPEC 2024-UQ8
P/2010 A3 (Hill),e,14.8153,63.5878,42.2611,6.101626,0.0653937,0.73434413,351.4789,10/31.0/2024,2000,g 14.0,4.0
# From MPC 75008
P/2010 C1 (Scotti),e,9.1159,141.6054,2.9851,7.124463,0.0518294,0.26319837,286.2168,10/31.0/2024,2000,g  9.5,4.0
# From MPC 75008
P/2010 D2 (WISE),e,57.1280,319.8738,119.9701,6.719876,0.0565799,0.45177808,304.4828,10/31.0/2024,2000,g 16.0,4.0
# From MPC 75009
P/2010 E2 (Jarnac),e,15.4116,177.8112,8.2296,8.637319,0.0388272,0.72033870,207.4327,10/31.0/2024,2000,g 14.0,4.0
# From MPC 72851
P/2010 H2 (Vales),e,14.2796,64.1869,128.0491,3.832734,0.1313533,0.19745180,342.9707,10/31.0/2024,2000,g  6.0,4.0
# From MPC 70361
P/2010 H3 (SOHO),e,23.1546,77.1922,26.0576,3.035731,0.1863413,0.98555365,0.0000,05/25.1864/2026,2000,g 20.0,2.0
# From MPEC 2024-GJ3
P/2010 H4 (Scotti),e,2.3178,44.7401,179.1229,6.614847,0.0579328,0.26671830,305.9381,10/31.0/2024,2000,g 10.5,4.0
# From MPC 74637
P/2010 H5 (Scotti),e,14.0555,24.5720,174.6258,7.174820,0.0512847,0.15415224,274.7169,10/31.0/2024,2000,g 13.0,2.0
# From MPC 98558
P/2010 J3 (McMillan),e,13.2310,106.5324,157.4552,8.987137,0.0365824,0.72422051,190.0046,10/31.0/2024,2000,g 11.0,4.0
# From MPC 84315
P/2010 JC81 (WISE),e,38.7970,30.8676,12.4838,8.102730,0.0427324,0.77826270,210.6225,10/31.0/2024,2000,g  9.0,4.0
# From MPEC 2024-H77
A/2010 LN135,e,64.5627,184.7959,181.5622,27811,0.0000002,0.99993732,0.0000,05/25.7337/2011,2000,g 14.0,2.0
# From MPC 74248
P/2010 T2 (PANSTARRS),e,7.8759,57.9230,350.7569,5.621119,0.0739554,0.32840699,18.1864,10/31.0/2024,2000,g 11.5,4.0
# From MPC 82316
P/2010 U1 (Boattini),e,8.2272,280.8068,86.4927,6.489495,0.0596194,0.24872325,319.5565,10/31.0/2024,2000,g  9.5,4.0
# From MPEC 2023-J95
C/2010 U3 (Boattini),e,55.5607,42.9893,88.0600,8258,0.0000013,0.99897825,0.0000,02/27.1521/2019,2000,g  1.0,4.0
# From MPC 79021
P/2010 UH55 (Spacewatch),e,8.0366,232.8605,225.2438,6.650622,0.0574660,0.56463170,284.7059,10/31.0/2024,2000,g 11.0,4.0
# From MPC 84021
P/2011 C2 (Gibbs),e,10.8916,11.9556,160.2778,7.411370,0.0488491,0.27048794,230.3351,10/31.0/2024,2000,g  9.0,4.0
# From MPEC 2013-Y32
P/2011 CR42 (Catalina),e,8.4591,58.7140,172.6523,3.511207,0.1498026,0.28005044,349.0531,10/31.0/2024,2000,g  9.0,4.0
# From MPC 79866
P/2011 FR143 (Lemmon),e,15.9652,190.8567,349.7084,6.877398,0.0546472,0.45212086,274.9920,10/31.0/2024,2000,g 14.0,2.0
# From MPC 82317
P/2011 JB15 (Spacewatch-Boattini),e,19.1280,153.5802,110.8019,7.377944,0.0491814,0.31461470,230.6167,10/31.0/2024,2000,g  9.0,4.0
# From MPC 87913
P/2011 N1 (ASH),e,35.7873,77.6296,330.4628,6.236364,0.0632859,0.54556292,286.8618,10/31.0/2024,2000,g 11.5,4.0
# From MPEC 2022-ED3
P/2011 P1 (McNaught),e,5.6541,4.2740,349.1993,7.459444,0.0483776,0.32679021,251.5439,10/31.0/2024,2000,g  9.0,4.0
# From MPEC 2022-HC2
P/2011 S1 (Gibbs),e,2.6890,218.8958,192.8276,8.591668,0.0391370,0.20145981,145.6391,10/31.0/2024,2000,g  8.0,4.0
# From MPEC 2024-UQ8
